{"type": "FeatureCollection", "features": [ {"type": "Feature", "properties": {"norad_id": 44476, "name": "INTELSAT 39 (IS-39)", "group": "intelsat", "lat": -0.03403538968312186, "lon": -154.6404423517962, "alt_km": 35784.20687515106, "timestamp": "2025-12-16T03:53:26.726856+00:00", "meta": {"OBJECT_NAME": "INTELSAT 39 (IS-39)", "OBJECT_ID": "2019-049B", "EPOCH": "2025-12-15T05:07:18.216192", "MEAN_MOTION": 1.0027092, "ECCENTRICITY": 0.00012261, "INCLINATION": 0.02, "RA_OF_ASC_NODE": 330.9109, "ARG_OF_PERICENTER": 168.1982, "MEAN_ANOMALY": 83.7811, "EPHEMERIS_TYPE": 0, "CLASSIFICATION_TYPE": "U", "NORAD_CAT_ID": 44476, "ELEMENT_SET_NO": 999, "REV_AT_EPOCH": 2328, "BSTAR": 0, "MEAN_MOTION_DOT": 5.4e-07, "MEAN_MOTION_DDOT": 0}, "tle": {"line1": "1 44476U 19049B   25349.21340528  .00000054  00000+0  00000+0 0  9993", "line2": "2 44476   0.0200 330.9109 0001226 168.1982  83.7811  1.00270920 23284"}}, "geometry": {"type": "Point", "coordinates": [-154.6404423517962, -0.03403538968312186]}}, {"type": "Feature", "properties": {"norad_id": 46114, "name": "GALAXY 30 (G-30)", "group": "intelsat", "lat": 0.018934289064705956, "lon": 18.43072360865043, "alt_km": 35789.948918129456, "timestamp": "2025-12-16T03:53:26.726867+00:00", "meta": {"OBJECT_NAME": "GALAXY 30 (G-30)", "OBJECT_ID": "2020-056C", "EPOCH": "2025-12-15T07:35:02.904576", "MEAN_MOTION": 1.00271437, "ECCENTRICITY": 0.00020876, "INCLINATION": 0.0188, "RA_OF_ASC_NODE": 359.4433, "ARG_OF_PERICENTER": 263.343, "MEAN_ANOMALY": 170.2018, "EPHEMERIS_TYPE": 0, "CLASSIFICATION_TYPE": "U", "NORAD_CAT_ID": 46114, "ELEMENT_SET_NO": 999, "REV_AT_EPOCH": 1944, "BSTAR": 0, "MEAN_MOTION_DOT": 5.8e-07, "MEAN_MOTION_DDOT": 0}, "tle": {"line1": "1 46114U 20056C   25349.31600584  .00000058  00000+0  00000+0 0  9990", "line2": "2 46114   0.0188 359.4433 0002087 263.3430 170.2018  1.00271437 19446"}}, "geometry": {"type": "Point", "coordinates": [18.43072360865043, 0.018934289064705956]}}, {"type": "Feature", "properties": {"norad_id": 54026, "name": "GALAXY 33 (G-33)", "group": "intelsat", "lat": 0.018151090034092696, "lon": 10.432913227990294, "alt_km": 35788.56498342884, "timestamp": "2025-12-16T03:53:26.726879+00:00", "meta": {"OBJECT_NAME": "GALAXY 33 (G-33)", "OBJECT_ID": "2022-128A", "EPOCH": "2025-12-15T08:39:38.537280", "MEAN_MOTION": 1.00272814, "ECCENTRICITY": 0.00018189, "INCLINATION": 0.0133, "RA_OF_ASC_NODE": 343.6881, "ARG_OF_PERICENTER": 275.0351, "MEAN_ANOMALY": 182.4579, "EPHEMERIS_TYPE": 0, "CLASSIFICATION_TYPE": "U", "NORAD_CAT_ID": 54026, "ELEMENT_SET_NO": 999, "REV_AT_EPOCH": 1190, "BSTAR": 0, "MEAN_MOTION_DOT": 1e-06, "MEAN_MOTION_DDOT": 0}, "tle": {"line1": "1 54026U 22128A   25349.36086270  .00000100  00000+0  00000+0 0  9996", "line2": "2 54026   0.0133 343.6881 0001818 275.0351 182.4579  1.00272814 11902"}}, "geometry": {"type": "Point", "coordinates": [10.432913227990294, 0.018151090034092696]}}, {"type": "Feature", "properties": {"norad_id": 54027, "name": "GALAXY 34 (G-34)", "group": "intelsat", "lat": 0.03309342750585474, "lon": 14.491694578930074, "alt_km": 35788.83980839183, "timestamp": "2025-12-16T03:53:26.726890+00:00", "meta": {"OBJECT_NAME": "GALAXY 34 (G-34)", "OBJECT_ID": "2022-128B", "EPOCH": "2025-12-15T07:35:38.904000", "MEAN_MOTION": 1.0027101, "ECCENTRICITY": 0.00014748, "INCLINATION": 0.0252, "RA_OF_ASC_NODE": 328.1325, "ARG_OF_PERICENTER": 291.6247, "MEAN_ANOMALY": 169.4498, "EPHEMERIS_TYPE": 0, "CLASSIFICATION_TYPE": "U", "NORAD_CAT_ID": 54027, "ELEMENT_SET_NO": 999, "REV_AT_EPOCH": 1206, "BSTAR": 0, "MEAN_MOTION_DOT": 0, "MEAN_MOTION_DDOT": 0}, "tle": {"line1": "1 54027U 22128B   25349.31642250  .00000000  00000+0  00000+0 0  9997", "line2": "2 54027   0.0252 328.1325 0001474 291.6247 169.4498  1.00271010 12062"}}, "geometry": {"type": "Point", "coordinates": [14.491694578930074, 0.03309342750585474]}}, {"type": "Feature", "properties": {"norad_id": 54243, "name": "GALAXY 31 (G-31)", "group": "intelsat", "lat": 0.018525936051920194, "lon": 22.413144247634825, "alt_km": 35787.64678982525, "timestamp": "2025-12-16T03:53:26.726902+00:00", "meta": {"OBJECT_NAME": "GALAXY 31 (G-31)", "OBJECT_ID": "2022-153A", "EPOCH": "2025-12-15T05:57:50.874336", "MEAN_MOTION": 1.00271245, "ECCENTRICITY": 0.00014871, "INCLINATION": 0.0132, "RA_OF_ASC_NODE": 0.5369, "ARG_OF_PERICENTER": 278.5657, "MEAN_ANOMALY": 133.5069, "EPHEMERIS_TYPE": 0, "CLASSIFICATION_TYPE": "U", "NORAD_CAT_ID": 54243, "ELEMENT_SET_NO": 999, "REV_AT_EPOCH": 528, "BSTAR": 0, "MEAN_MOTION_DOT": 0, "MEAN_MOTION_DDOT": 0}, "tle": {"line1": "1 54243U 22153A   25349.24850549  .00000000  00000+0  00000+0 0  9999", "line2": "2 54243   0.0132   0.5369 0001487 278.5657 133.5069  1.00271245  5283"}}, "geometry": {"type": "Point", "coordinates": [22.413144247634825, 0.018525936051920194]}}, {"type": "Feature", "properties": {"norad_id": 54244, "name": "GALAXY 32 (G-32)", "group": "intelsat", "lat": 0.03116466560295183, "lon": 52.43674064025193, "alt_km": 35787.30152563125, "timestamp": "2025-12-16T03:53:26.726914+00:00", "meta": {"OBJECT_NAME": "GALAXY 32 (G-32)", "OBJECT_ID": "2022-153B", "EPOCH": "2025-12-15T06:06:27.548928", "MEAN_MOTION": 1.00271821, "ECCENTRICITY": 0.00025766, "INCLINATION": 0.0088, "RA_OF_ASC_NODE": 336.098, "ARG_OF_PERICENTER": 340.2571, "MEAN_ANOMALY": 128.4228, "EPHEMERIS_TYPE": 0, "CLASSIFICATION_TYPE": "U", "NORAD_CAT_ID": 54244, "ELEMENT_SET_NO": 999, "REV_AT_EPOCH": 1130, "BSTAR": 0, "MEAN_MOTION_DOT": -1.53e-06, "MEAN_MOTION_DDOT": 0}, "tle": {"line1": "1 54244U 22153B   25349.25448552 -.00000153  00000+0  00000+0 0  9998", "line2": "2 54244   0.0088 336.0980 0002576 340.2571 128.4228  1.00271821 11302"}}, "geometry": {"type": "Point", "coordinates": [52.43674064025193, 0.03116466560295183]}}, {"type": "Feature", "properties": {"norad_id": 54741, "name": "GALAXY 35 (G-35)", "group": "intelsat", "lat": 0.03639589563246538, "lon": 50.30382285737396, "alt_km": 35794.11910759883, "timestamp": "2025-12-16T03:53:26.726925+00:00", "meta": {"OBJECT_NAME": "GALAXY 35 (G-35)", "OBJECT_ID": "2022-170A", "EPOCH": "2025-12-15T06:05:50.109216", "MEAN_MOTION": 1.00269209, "ECCENTRICITY": 0.00022648, "INCLINATION": 0.0155, "RA_OF_ASC_NODE": 343.7005, "ARG_OF_PERICENTER": 287.2968, "MEAN_ANOMALY": 171.5121, "EPHEMERIS_TYPE": 0, "CLASSIFICATION_TYPE": "U", "NORAD_CAT_ID": 54741, "ELEMENT_SET_NO": 999, "REV_AT_EPOCH": 1104, "BSTAR": 0, "MEAN_MOTION_DOT": 0, "MEAN_MOTION_DDOT": 0}, "tle": {"line1": "1 54741U 22170A   25349.25405219  .00000000  00000+0  00000+0 0  9992", "line2": "2 54741   0.0155 343.7005 0002264 287.2968 171.5121  1.00269209 11045"}}, "geometry": {"type": "Point", "coordinates": [50.30382285737396, 0.03639589563246538]}}, {"type": "Feature", "properties": {"norad_id": 54742, "name": "GALAXY 36 (G-36)", "group": "intelsat", "lat": 0.041017104883123885, "lon": 54.4727601365038, "alt_km": 35785.39970549, "timestamp": "2025-12-16T03:53:26.726937+00:00", "meta": {"OBJECT_NAME": "GALAXY 36 (G-36)", "OBJECT_ID": "2022-170B", "EPOCH": "2025-12-15T00:58:46.928352", "MEAN_MOTION": 1.00269065, "ECCENTRICITY": 3.73e-05, "INCLINATION": 0.0188, "RA_OF_ASC_NODE": 328.7853, "ARG_OF_PERICENTER": 103.5858, "MEAN_ANOMALY": 297.3548, "EPHEMERIS_TYPE": 0, "CLASSIFICATION_TYPE": "U", "NORAD_CAT_ID": 54742, "ELEMENT_SET_NO": 999, "REV_AT_EPOCH": 1092, "BSTAR": 0, "MEAN_MOTION_DOT": -1.65e-06, "MEAN_MOTION_DDOT": 0}, "tle": {"line1": "1 54742U 22170B   25349.04082093 -.00000165  00000+0  00000+0 0  9994", "line2": "2 54742   0.0188 328.7853 0000373 103.5858 297.3548  1.00269065 10929"}}, "geometry": {"type": "Point", "coordinates": [54.4727601365038, 0.041017104883123885]}}, {"type": "Feature", "properties": {"norad_id": 57493, "name": "GALAXY 37 (G-37)", "group": "intelsat", "lat": -0.0017063078187814678, "lon": 16.437472754053353, "alt_km": 35788.2240464562, "timestamp": "2025-12-16T03:53:26.726949+00:00", "meta": {"OBJECT_NAME": "GALAXY 37 (G-37)", "OBJECT_ID": "2023-112A", "EPOCH": "2025-12-15T07:35:38.904000", "MEAN_MOTION": 1.00272733, "ECCENTRICITY": 0.00020161, "INCLINATION": 0.0225, "RA_OF_ASC_NODE": 53.4024, "ARG_OF_PERICENTER": 216.2999, "MEAN_ANOMALY": 161.4383, "EPHEMERIS_TYPE": 0, "CLASSIFICATION_TYPE": "U", "NORAD_CAT_ID": 57493, "ELEMENT_SET_NO": 999, "REV_AT_EPOCH": 869, "BSTAR": 0, "MEAN_MOTION_DOT": 6.9e-07, "MEAN_MOTION_DDOT": 0}, "tle": {"line1": "1 57493U 23112A   25349.31642250  .00000069  00000+0  00000+0 0  9996", "line2": "2 57493   0.0225  53.4024 0002016 216.2999 161.4383  1.00272733  8698"}}, "geometry": {"type": "Point", "coordinates": [16.437472754053353, -0.0017063078187814678]}}]}